{
  "type": "FeatureCollection",
  "features": [
    {
      "type": "Feature",
      "properties": {
        "norad_id": 43564,
        "name": "GSAT0221 (GALILEO 25)",
        "group": "galileo",
        "lat": 35.404048440136364,
        "lon": 14.252022828299255,
        "alt_km": 23228.447857368148,
        "timestamp": "2025-12-06T03:35:02.133177+00:00",
        "meta_object_name": "GSAT0221 (GALILEO 25)",
        "meta_object_id": "2018-060A",
        "meta_epoch": "2025-12-04T07:38:46.646016",
        "meta_mean_motion": 1.70475653,
        "meta_eccentricity": 0.00066579,
        "meta_inclination": 57.2296,
        "meta_ra_of_asc_node": 347.0453,
        "meta_arg_of_pericenter": 280.7305,
        "meta_mean_anomaly": 79.2265,
        "meta_ephemeris_type": 0,
        "meta_classification_type": "U",
        "meta_norad_cat_id": 43564,
        "meta_element_set_no": 999,
        "meta_rev_at_epoch": 4584,
        "meta_bstar": 0,
        "meta_mean_motion_dot": -7.1e-07,
        "meta_mean_motion_ddot": 0,
        "tle_line1": "1 43564U 18060A   25338.31859544 -.00000071  00000+0  00000+0 0  9994",
        "tle_line2": "2 43564  57.2296 347.0453 0006657 280.7305  79.2265  1.70475653 45840"
      },
      "geometry": {
        "type": "Point",
        "coordinates": [
          14.252022828299255,
          35.404048440136364
        ]
      }
    },
    {
      "type": "Feature",
      "properties": {
        "norad_id": 43565,
        "name": "GSAT0222 (GALILEO 26)",
        "group": "galileo",
        "lat": -57.19449378159425,
        "lon": -104.97932414367266,
        "alt_km": 23209.937416879882,
        "timestamp": "2025-12-06T03:35:02.133189+00:00",
        "meta_object_name": "GSAT0222 (GALILEO 26)",
        "meta_object_id": "2018-060B",
        "meta_epoch": "2025-12-03T08:45:14.770656",
        "meta_mean_motion": 1.70475396,
        "meta_eccentricity": 0.00061792,
        "meta_inclination": 57.2336,
        "meta_ra_of_asc_node": 347.0741,
        "meta_arg_of_pericenter": 260.8098,
        "meta_mean_anomaly": 99.1565,
        "meta_ephemeris_type": 0,
        "meta_classification_type": "U",
        "meta_norad_cat_id": 43565,
        "meta_element_set_no": 999,
        "meta_rev_at_epoch": 4587,
        "meta_bstar": 0,
        "meta_mean_motion_dot": -6.7e-07,
        "meta_mean_motion_ddot": 0,
        "tle_line1": "1 43565U 18060B   25337.36475429 -.00000067  00000+0  00000+0 0  9990",
        "tle_line2": "2 43565  57.2336 347.0741 0006179 260.8098  99.1565  1.70475396 45874"
      },
      "geometry": {
        "type": "Point",
        "coordinates": [
          -104.97932414367266,
          -57.19449378159425
        ]
      }
    },
    {
      "type": "Feature",
      "properties": {
        "norad_id": 43566,
        "name": "GSAT0219 (GALILEO 23)",
        "group": "galileo",
        "lat": 37.805882367052696,
        "lon": 137.0136393316428,
        "alt_km": 23232.91348488441,
        "timestamp": "2025-12-06T03:35:02.133201+00:00",
        "meta_object_name": "GSAT0219 (GALILEO 23)",
        "meta_object_id": "2018-060C",
        "meta_epoch": "2025-12-03T14:03:42.727680",
        "meta_mean_motion": 1.70475586,
        "meta_eccentricity": 0.00058261,
        "meta_inclination": 57.2326,
        "meta_ra_of_asc_node": 347.0697,
        "meta_arg_of_pericenter": 286.7572,
        "meta_mean_anomaly": 73.2143,
        "meta_ephemeris_type": 0,
        "meta_classification_type": "U",
        "meta_norad_cat_id": 43566,
        "meta_element_set_no": 999,
        "meta_rev_at_epoch": 4585,
        "meta_bstar": 0,
        "meta_mean_motion_dot": -6.8e-07,
        "meta_mean_motion_ddot": 0,
        "tle_line1": "1 43566U 18060C   25337.58591120 -.00000068  00000+0  00000+0 0  9993",
        "tle_line2": "2 43566  57.2326 347.0697 0005826 286.7572  73.2143  1.70475586 45850"
      },
      "geometry": {
        "type": "Point",
        "coordinates": [
          137.0136393316428,
          37.805882367052696
        ]
      }
    },
    {
      "type": "Feature",
      "properties": {
        "norad_id": 43567,
        "name": "GSAT0220 (GALILEO 24)",
        "group": "galileo",
        "lat": -1.9752561070887926,
        "lon": -14.270207765004065,
        "alt_km": 23218.521550291975,
        "timestamp": "2025-12-06T03:35:02.133213+00:00",
        "meta_object_name": "GSAT0220 (GALILEO 24)",
        "meta_object_id": "2018-060D",
        "meta_epoch": "2025-12-01T11:03:06.852672",
        "meta_mean_motion": 1.70475407,
        "meta_eccentricity": 0.00061058,
        "meta_inclination": 57.2328,
        "meta_ra_of_asc_node": 347.128,
        "meta_arg_of_pericenter": 280.6549,
        "meta_mean_anomaly": 79.3184,
        "meta_ephemeris_type": 0,
        "meta_classification_type": "U",
        "meta_norad_cat_id": 43567,
        "meta_element_set_no": 999,
        "meta_rev_at_epoch": 4580,
        "meta_bstar": 0,
        "meta_mean_motion_dot": -5.9e-07,
        "meta_mean_motion_ddot": 0,
        "tle_line1": "1 43567U 18060D   25335.46049598 -.00000059  00000+0  00000+0 0  9996",
        "tle_line2": "2 43567  57.2328 347.1280 0006105 280.6549  79.3184  1.70475407 45809"
      },
      "geometry": {
        "type": "Point",
        "coordinates": [
          -14.270207765004065,
          -1.9752561070887926
        ]
      }
    },
    {
      "type": "Feature",
      "properties": {
        "norad_id": 49809,
        "name": "GSAT0223 (GALILEO 27)",
        "group": "galileo",
        "lat": 57.16041016970874,
        "lon": 73.82150941164025,
        "alt_km": 23228.904680841948,
        "timestamp": "2025-12-06T03:35:02.133225+00:00",
        "meta_object_name": "GSAT0223 (GALILEO 27)",
        "meta_object_id": "2021-116A",
        "meta_epoch": "2025-12-03T22:51:48.276576",
        "meta_mean_motion": 1.70475481,
        "meta_eccentricity": 0.00047656,
        "meta_inclination": 57.2213,
        "meta_ra_of_asc_node": 346.9508,
        "meta_arg_of_pericenter": 249.4566,
        "meta_mean_anomaly": 290.7436,
        "meta_ephemeris_type": 0,
        "meta_classification_type": "U",
        "meta_norad_cat_id": 49809,
        "meta_element_set_no": 999,
        "meta_rev_at_epoch": 2485,
        "meta_bstar": 0,
        "meta_mean_motion_dot": -6.9e-07,
        "meta_mean_motion_ddot": 0,
        "tle_line1": "1 49809U 21116A   25337.95264209 -.00000069  00000+0  00000+0 0  9992",
        "tle_line2": "2 49809  57.2213 346.9508 0004765 249.4566 290.7436  1.70475481 24852"
      },
      "geometry": {
        "type": "Point",
        "coordinates": [
          73.82150941164025,
          57.16041016970874
        ]
      }
    },
    {
      "type": "Feature",
      "properties": {
        "norad_id": 49810,
        "name": "GSAT0224 (GALILEO 28)",
        "group": "galileo",
        "lat": -17.474063720089223,
        "lon": 178.59686814756103,
        "alt_km": 23217.252806154236,
        "timestamp": "2025-12-06T03:35:02.133237+00:00",
        "meta_object_name": "GSAT0224 (GALILEO 28)",
        "meta_object_id": "2021-116B",
        "meta_epoch": "2025-12-04T15:38:46.077216",
        "meta_mean_motion": 1.70475512,
        "meta_eccentricity": 0.00040562,
        "meta_inclination": 57.2223,
        "meta_ra_of_asc_node": 346.9305,
        "meta_arg_of_pericenter": 253.8254,
        "meta_mean_anomaly": 108.1284,
        "meta_ephemeris_type": 0,
        "meta_classification_type": "U",
        "meta_norad_cat_id": 49810,
        "meta_element_set_no": 999,
        "meta_rev_at_epoch": 2489,
        "meta_bstar": 0,
        "meta_mean_motion_dot": -7.3e-07,
        "meta_mean_motion_ddot": 0,
        "tle_line1": "1 49810U 21116B   25338.65192219 -.00000073  00000+0  00000+0 0  9998",
        "tle_line2": "2 49810  57.2223 346.9305 0004056 253.8254 108.1284  1.70475512 24898"
      },
      "geometry": {
        "type": "Point",
        "coordinates": [
          178.59686814756103,
          -17.474063720089223
        ]
      }
    },
    {
      "type": "Feature",
      "properties": {
        "norad_id": 59598,
        "name": "GSAT0225 (GALILEO 29)",
        "group": "galileo",
        "lat": -11.02086380944432,
        "lon": -65.70056518376315,
        "alt_km": 23218.272440640034,
        "timestamp": "2025-12-06T03:35:02.133248+00:00",
        "meta_object_name": "GSAT0225 (GALILEO 29)",
        "meta_object_id": "2024-079A",
        "meta_epoch": "2025-12-04T01:47:23.955648",
        "meta_mean_motion": 1.70474518,
        "meta_eccentricity": 0.0002,
        "meta_inclination": 54.9978,
        "meta_ra_of_asc_node": 106.5374,
        "meta_arg_of_pericenter": 171.9845,
        "meta_mean_anomaly": 188.0819,
        "meta_ephemeris_type": 0,
        "meta_classification_type": "U",
        "meta_norad_cat_id": 59598,
        "meta_element_set_no": 999,
        "meta_rev_at_epoch": 999,
        "meta_bstar": 0,
        "meta_mean_motion_dot": 1.5e-07,
        "meta_mean_motion_ddot": 0,
        "tle_line1": "1 59598U 24079A   25338.07458282  .00000015  00000+0  00000+0 0  9999",
        "tle_line2": "2 59598  54.9978 106.5374 0002000 171.9845 188.0819  1.70474518  9992"
      },
      "geometry": {
        "type": "Point",
        "coordinates": [
          -65.70056518376315,
          -11.02086380944432
        ]
      }
    }
  ]
}